start=new Date('2022-09-08T00:00:00.000Z').valueOf();
sats=[{"EPHEMERIS_TYPE":"0","ARG_OF_PERICENTER":"96.2100","ECCENTRICITY":"0.00014130","MEAN_MOTION":"15.06385833","TIME_SYSTEM":"UTC","REV_AT_EPOCH":"7586","RA_OF_ASC_NODE":"82.7589","SEMIMAJOR_AXIS":"6925.392","OBJECT_NAME":"STARLINK-2527","MEAN_MOTION_DOT":"-0.00000178","GP_ID":"211971629","CLASSIFICATION_TYPE":"U","TLE_LINE2":"2 48324  53.0556  82.7589 0001413  96.2100 263.9050 15.06385833 75866","DECAY_DATE":null,"RCS_SIZE":"LARGE","LAUNCH_DATE":"2021-04-29","COUNTRY_CODE":"US","APOAPSIS":"548.236","ELEMENT_SET_NO":"999","SITE":"AFETR","PERIOD":"95.593","MEAN_MOTION_DDOT":"0.0000000000000","PERIAPSIS":"546.278","NORAD_CAT_ID":"48324","OBJECT_TYPE":"PAYLOAD","INCLINATION":"53.0556","OBJECT_ID":"2021-036BA","BSTAR":"0.00000692110000","REF_FRAME":"TEME","MEAN_ANOMALY":"263.9050","MEAN_ELEMENT_THEORY":"SGP4","EPOCH":"2022-09-07T19:11:28.597056","CENTER_NAME":"EARTH","TLE_LINE1":"1 48324U 21036BA  22250.79963654 -.00000178  00000-0  69211-5 0  9994","FILE":"3562368"},{"OBJECT_TYPE":"PAYLOAD","OBJECT_ID":"2021-036BB","INCLINATION":"53.0550","BSTAR":"0.00001385100000","REF_FRAME":"TEME","MEAN_ANOMALY":"279.3859","MEAN_ELEMENT_THEORY":"SGP4","EPOCH":"2022-09-07T17:31:59.270304","CENTER_NAME":"EARTH","TLE_LINE1":"1 48325U 21036BB  22250.73054711 -.00000075  00000-0  13851-4 0  9998","FILE":"3562377","EPHEMERIS_TYPE":"0","ARG_OF_PERICENTER":"80.7276","MEAN_MOTION":"15.06390214","ECCENTRICITY":"0.00012930","TIME_SYSTEM":"UTC","REV_AT_EPOCH":"7585","OBJECT_NAME":"STARLINK-2495","SEMIMAJOR_AXIS":"6925.379","RA_OF_ASC_NODE":"83.1038","GP_ID":"211971633","MEAN_MOTION_DOT":"-0.00000075","CLASSIFICATION_TYPE":"U","TLE_LINE2":"2 48325  53.0550  83.1038 0001293  80.7276 279.3859 15.06390214 75859","RCS_SIZE":"LARGE","DECAY_DATE":null,"LAUNCH_DATE":"2021-04-29","SITE":"AFETR","PERIOD":"95.593","ELEMENT_SET_NO":"999","COUNTRY_CODE":"US","APOAPSIS":"548.139","NORAD_CAT_ID":"48325","PERIAPSIS":"546.348","MEAN_MOTION_DDOT":"0.0000000000000"},{"DECAY_DATE":null,"TLE_LINE2":"2 48326  53.0556  83.1186 0001371  87.8451 272.2695 15.06383290 75856","RCS_SIZE":"MEDIUM","LAUNCH_DATE":"2021-04-29","MEAN_MOTION_DOT":"-0.00000708","GP_ID":"211971666","CLASSIFICATION_TYPE":"U","MEAN_MOTION_DDOT":"0.0000000000000","PERIAPSIS":"546.315","NORAD_CAT_ID":"48326","APOAPSIS":"548.214","COUNTRY_CODE":"US","ELEMENT_SET_NO":"999","PERIOD":"95.593","SITE":"AFETR","ARG_OF_PERICENTER":"87.8451","EPHEMERIS_TYPE":"0","SEMIMAJOR_AXIS":"6925.400","RA_OF_ASC_NODE":"83.1186","OBJECT_NAME":"STARLINK-2498","MEAN_MOTION":"15.06383290","ECCENTRICITY":"0.00013710","REV_AT_EPOCH":"7585","TIME_SYSTEM":"UTC","MEAN_ELEMENT_THEORY":"SGP4","CENTER_NAME":"EARTH","EPOCH":"2022-09-07T17:26:41.483328","REF_FRAME":"TEME","MEAN_ANOMALY":"272.2695","TLE_LINE1":"1 48326U 21036BC  22250.72686902 -.00000708  00000-0 -28658-4 0  9996","FILE":"3562370","OBJECT_TYPE":"PAYLOAD","BSTAR":"-0.00002865800000","INCLINATION":"53.0556","OBJECT_ID":"2021-036BC"},{"EPHEMERIS_TYPE":"0","ARG_OF_PERICENTER":"82.3418","MEAN_MOTION":"15.06384412","ECCENTRICITY":"0.00015010","TIME_SYSTEM":"UTC","REV_AT_EPOCH":"7526","OBJECT_NAME":"STARLINK-2502","SEMIMAJOR_AXIS":"6925.396","RA_OF_ASC_NODE":"83.1308","GP_ID":"212009880","MEAN_MOTION_DOT":"-0.00000054","CLASSIFICATION_TYPE":"U","TLE_LINE2":"2 48327  53.0566  83.1308 0001501  82.3418 277.7742 15.06384412 75267","DECAY_DATE":null,"RCS_SIZE":"LARGE","LAUNCH_DATE":"2021-04-29","PERIOD":"95.593","SITE":"AFETR","COUNTRY_CODE":"US","APOAPSIS":"548.301","ELEMENT_SET_NO":"999","PERIAPSIS":"546.222","NORAD_CAT_ID":"48327","MEAN_MOTION_DDOT":"0.0000000000000","OBJECT_TYPE":"PAYLOAD","OBJECT_ID":"2021-036BD","INCLINATION":"53.0566","BSTAR":"0.00001526700000","REF_FRAME":"TEME","MEAN_ANOMALY":"277.7742","MEAN_ELEMENT_THEORY":"SGP4","EPOCH":"2022-09-07T17:21:22.884192","CENTER_NAME":"EARTH","TLE_LINE1":"1 48327U 21036BD  22250.72318153 -.00000054  00000-0  15267-4 0  9992","FILE":"3563022"},{"OBJECT_ID":"2021-036BE","INCLINATION":"53.0561","BSTAR":"0.00000247380000","OBJECT_TYPE":"PAYLOAD","TLE_LINE1":"1 48328U 21036BE  22250.71854699 -.00000245  00000-0  24738-5 0  9998","FILE":"3562594","REF_FRAME":"TEME","MEAN_ANOMALY":"273.1915","MEAN_ELEMENT_THEORY":"SGP4","EPOCH":"2022-09-07T17:14:42.459936","CENTER_NAME":"EARTH","ECCENTRICITY":"0.00013880","MEAN_MOTION":"15.06387523","REV_AT_EPOCH":"7585","TIME_SYSTEM":"UTC","OBJECT_NAME":"STARLINK-2504","RA_OF_ASC_NODE":"83.1473","SEMIMAJOR_AXIS":"6925.387","EPHEMERIS_TYPE":"0","ARG_OF_PERICENTER":"86.9232","PERIOD":"95.593","SITE":"AFETR","COUNTRY_CODE":"US","APOAPSIS":"548.213","ELEMENT_SET_NO":"999","NORAD_CAT_ID":"48328","PERIAPSIS":"546.291","MEAN_MOTION_DDOT":"0.0000000000000","GP_ID":"211976822","MEAN_MOTION_DOT":"-0.00000245","CLASSIFICATION_TYPE":"U","TLE_LINE2":"2 48328  53.0561  83.1473 0001388  86.9232 273.1915 15.06387523 75856","RCS_SIZE":"LARGE","DECAY_DATE":null,"LAUNCH_DATE":"2021-04-29"},{"PERIOD":"95.592","SITE":"AFETR","COUNTRY_CODE":"US","ELEMENT_SET_NO":"999","APOAPSIS":"548.305","PERIAPSIS":"546.152","NORAD_CAT_ID":"48329","MEAN_MOTION_DDOT":"0.0000000000000","GP_ID":"212008380","MEAN_MOTION_DOT":"-0.00000369","CLASSIFICATION_TYPE":"U","RCS_SIZE":"LARGE","TLE_LINE2":"2 48329  53.0544  83.1582 0001554  67.5979 292.5175 15.06395190 75264","DECAY_DATE":null,"LAUNCH_DATE":"2021-04-29","MEAN_MOTION":"15.06395190","ECCENTRICITY":"0.00015540","REV_AT_EPOCH":"7526","TIME_SYSTEM":"UTC","OBJECT_NAME":"STARLINK-2510","SEMIMAJOR_AXIS":"6925.363","RA_OF_ASC_NODE":"83.1582","EPHEMERIS_TYPE":"0","ARG_OF_PERICENTER":"67.5979","TLE_LINE1":"1 48329U 21036BF  22250.71580146 -.00000369  00000-0 -58914-5 0  9993","FILE":"3563022","REF_FRAME":"TEME","MEAN_ANOMALY":"292.5175","MEAN_ELEMENT_THEORY":"SGP4","CENTER_NAME":"EARTH","EPOCH":"2022-09-07T17:10:45.246144","OBJECT_ID":"2021-036BF","INCLINATION":"53.0544","BSTAR":"-0.00000589140000","OBJECT_TYPE":"PAYLOAD"},{"EPHEMERIS_TYPE":"0","ARG_OF_PERICENTER":"83.2933","TIME_SYSTEM":"UTC","REV_AT_EPOCH":"7528","MEAN_MOTION":"15.06384722","ECCENTRICITY":"0.00010990","OBJECT_NAME":"STARLINK-2501","RA_OF_ASC_NODE":"82.5809","SEMIMAJOR_AXIS":"6925.395","CLASSIFICATION_TYPE":"U","GP_ID":"212009630","MEAN_MOTION_DOT":"0.00000107","LAUNCH_DATE":"2021-04-29","DECAY_DATE":null,"TLE_LINE2":"2 48330  53.0547  82.5809 0001099  83.2933 276.8181 15.06384722 75286","RCS_SIZE":"LARGE","PERIOD":"95.593","SITE":"AFETR","APOAPSIS":"548.021","COUNTRY_CODE":"US","ELEMENT_SET_NO":"999","PERIAPSIS":"546.499","NORAD_CAT_ID":"48330","MEAN_MOTION_DDOT":"0.0000000000000","OBJECT_TYPE":"PAYLOAD","OBJECT_ID":"2021-036BG","INCLINATION":"53.0547","BSTAR":"0.00002610700000","MEAN_ANOMALY":"276.8181","REF_FRAME":"TEME","EPOCH":"2022-09-07T20:16:31.968480","CENTER_NAME":"EARTH","MEAN_ELEMENT_THEORY":"SGP4","FILE":"3563022","TLE_LINE1":"1 48330U 21036BG  22250.84481445  .00000107  00000-0  26107-4 0  9997"},{"ARG_OF_PERICENTER":"62.2454","EPHEMERIS_TYPE":"0","SEMIMAJOR_AXIS":"6925.413","RA_OF_ASC_NODE":"82.5990","OBJECT_NAME":"STARLINK-2514","TIME_SYSTEM":"UTC","REV_AT_EPOCH":"7528","MEAN_MOTION":"15.06378924","ECCENTRICITY":"0.00014400","LAUNCH_DATE":"2021-04-29","TLE_LINE2":"2 48331  53.0548  82.5990 0001440  62.2454 297.8681 15.06378924 75289","RCS_SIZE":"LARGE","DECAY_DATE":null,"CLASSIFICATION_TYPE":"U","GP_ID":"212009382","MEAN_MOTION_DOT":"0.00000498","MEAN_MOTION_DDOT":"0.0000000000000","NORAD_CAT_ID":"48331","PERIAPSIS":"546.281","COUNTRY_CODE":"US","ELEMENT_SET_NO":"999","APOAPSIS":"548.275","SITE":"AFETR","PERIOD":"95.593","OBJECT_TYPE":"PAYLOAD","BSTAR":"0.00005235200000","INCLINATION":"53.0548","OBJECT_ID":"2021-036BH","EPOCH":"2022-09-07T20:11:13.608672","CENTER_NAME":"EARTH","MEAN_ELEMENT_THEORY":"SGP4","MEAN_ANOMALY":"297.8681","REF_FRAME":"TEME","FILE":"3563022","TLE_LINE1":"1 48331U 21036BH  22250.84112973  .00000498  00000-0  52352-4 0  9999"},{"FILE":"3563022","TLE_LINE1":"1 48332U 21036BJ  22250.70748037 -.00000431  00000-0 -10049-4 0  9997","EPOCH":"2022-09-07T16:58:46.303968","CENTER_NAME":"EARTH","MEAN_ELEMENT_THEORY":"SGP4","MEAN_ANOMALY":"276.1654","REF_FRAME":"TEME","BSTAR":"-0.00001004900000","OBJECT_ID":"2021-036BJ","INCLINATION":"53.0545","OBJECT_TYPE":"PAYLOAD","NORAD_CAT_ID":"48332","PERIAPSIS":"546.183","MEAN_MOTION_DDOT":"0.0000000000000","SITE":"AFETR","PERIOD":"95.592","COUNTRY_CODE":"US","ELEMENT_SET_NO":"999","APOAPSIS":"548.261","LAUNCH_DATE":"2021-04-29","TLE_LINE2":"2 48332  53.0545  83.1800 0001500  83.9506 276.1654 15.06397156 75265","RCS_SIZE":"LARGE","DECAY_DATE":null,"CLASSIFICATION_TYPE":"U","GP_ID":"212008629","MEAN_MOTION_DOT":"-0.00000431","OBJECT_NAME":"STARLINK-2511","SEMIMAJOR_AXIS":"6925.357","RA_OF_ASC_NODE":"83.1800","TIME_SYSTEM":"UTC","REV_AT_EPOCH":"7526","ECCENTRICITY":"0.00015000","MEAN_MOTION":"15.06397156","ARG_OF_PERICENTER":"83.9506","EPHEMERIS_TYPE":"0"},{"RA_OF_ASC_NODE":"82.9153","SEMIMAJOR_AXIS":"6925.383","OBJECT_NAME":"STARLINK-2518","REV_AT_EPOCH":"7527","TIME_SYSTEM":"UTC","ECCENTRICITY":"0.00014170","MEAN_MOTION":"15.06388793","ARG_OF_PERICENTER":"79.9391","EPHEMERIS_TYPE":"0","MEAN_MOTION_DDOT":"0.0000000000000","NORAD_CAT_ID":"48333","PERIAPSIS":"546.267","APOAPSIS":"548.229","COUNTRY_CODE":"US","ELEMENT_SET_NO":"999","PERIOD":"95.593","SITE":"AFETR","LAUNCH_DATE":"2021-04-29","TLE_LINE2":"2 48333  53.0563  82.9153 0001417  79.9391 280.1758 15.06388793 75276","RCS_SIZE":"LARGE","DECAY_DATE":null,"CLASSIFICATION_TYPE":"U","GP_ID":"212008879","MEAN_MOTION_DOT":"-0.00000305","BSTAR":"-0.00000159030000","INCLINATION":"53.0563","OBJECT_ID":"2021-036BK","OBJECT_TYPE":"PAYLOAD","FILE":"3563022","TLE_LINE1":"1 48333U 21036BK  22250.76741142 -.00000305  00000-0 -15903-5 0  9999","EPOCH":"2022-09-07T18:25:04.346688","CENTER_NAME":"EARTH","MEAN_ELEMENT_THEORY":"SGP4","MEAN_ANOMALY":"280.1758","REF_FRAME":"TEME"}];
